ORBCOMM FM115           
1 41186U 15081H   24263.15055750  .00002342  00000+0  50491-3 0  9992
2 41186  46.9971 247.5620 0001352 279.4791  80.5942 14.61248157468111
ORBCOMM FM108           
1 41187U 15081J   24263.16077731  .00002047  00000+0  48754-3 0  9998
2 41187  47.0042 306.0114 0001268 158.6777 201.4161 14.57031321467338
ORBCOMM FM117           
1 41188U 15081K   24262.44132267  .00002358  00000+0  55596-3 0  9992
2 41188  47.0005 308.2573 0002121 170.3666 189.7260 14.57032368467192
ORBCOMM FM116           
1 41189U 15081L   24262.70553852  .00002543  00000+0  59654-3 0  9994
2 41189  47.0019  36.8447 0003054 242.7926 117.2648 14.57040682466048
